[{"OBJECT_NAME":"STARLINK-6028","OBJECT_ID":"2023-078BD","EPOCH":"2026-03-09T21:12:15.545664","MEAN_MOTION":14.98325669,"ECCENTRICITY":0.00027686,"INCLINATION":69.9992,"RA_OF_ASC_NODE":343.7857,"ARG_OF_PERICENTER":205.7559,"MEAN_ANOMALY":154.3463,"EPHEMERIS_TYPE":0,"CLASSIFICATION_TYPE":"U","NORAD_CAT_ID":56818,"ELEMENT_SET_NO":999,"REV_AT_EPOCH":15340,"BSTAR":0.0002752239,"MEAN_MOTION_DOT":3.192e-5,"MEAN_MOTION_DDOT":0},{"OBJECT_NAME":"CZ-6A DEB","OBJECT_ID":"2024-140LD","EPOCH":"2026-03-09T20:28:55.674624","MEAN_MOTION":14.66900982,"ECCENTRICITY":0.01590307,"INCLINATION":88.6669,"RA_OF_ASC_NODE":257.8237,"ARG_OF_PERICENTER":143.6628,"MEAN_ANOMALY":217.5514,"EPHEMERIS_TYPE":0,"CLASSIFICATION_TYPE":"U","NORAD_CAT_ID":60898,"ELEMENT_SET_NO":999,"REV_AT_EPOCH":8295,"BSTAR":0.0020754891,"MEAN_MOTION_DOT":0.00014066,"MEAN_MOTION_DDOT":0}]
